TDRS 3                  
1 19548U 88091B   19230.75153847 -.00000302  00000-0  00000-0 0  9994
2 19548  14.3134   0.1780 0032142 317.6726 230.5828  1.00267303100398
FLTSATCOM 8 (USA 46)    
1 20253U 89077A   19231.42185542 -.00000082  00000-0  00000+0 0  9990
2 20253  13.0575   7.9355 0002061 140.1706  43.2794  1.00273746235607
SKYNET 4C               
1 20776U 90079A   19230.76509116  .00000123  00000-0  00000-0 0  9993
2 20776  13.9837   8.5572 0002801 144.8000 122.4592  1.00267896105921
TDRS 5                  
1 21639U 91054B   19230.68166090  .00000081  00000-0  00000-0 0  9990
2 21639  14.4047  13.4542 0021896   5.5841  25.4480  1.00271813102707
TDRS 6                  
1 22314U 93003B   19230.75232359 -.00000297  00000-0  00000-0 0  9997
2 22314  14.0718  16.5309 0001193  21.8139 153.3950  1.00268831 97435
UFO 2 (USA 95)          
1 22787U 93056A   19231.05433431  .00000124  00000-0  00000+0 0  9994
2 22787  11.1817  17.3053 0004783 123.3115 234.7984  1.00274503 93645
USA 99 (MILSTAR-1 1)    
1 22988U 94009A   19230.82551453 -.00000271  00000-0  00000-0 0  9990
2 22988  13.6317  54.5866 0002962  87.5085  83.2035  1.00274196  6634
ASTRA 1D                
1 23331U 94070A   19230.89050528 -.00000273  00000-0  00000-0 0  9997
2 23331   8.6893  44.0158 0003306  98.6603  71.8702  1.00272460 91270
UFO 4 (USA 108)         
1 23467U 95003A   19230.85982926 -.00000027  00000-0  00000-0 0  9993
2 23467   9.8759  22.5090 0004077  94.7369 331.4647  1.00269335 89965
AMSC 1                  
1 23553U 95019A   19230.53939650 -.00000102  00000-0  00000-0 0  9991
2 23553  10.9630  33.4136 0006060  55.7270 325.1270  1.00272468 89161
TDRS 7                  
1 23613U 95035B   19230.64694282 -.00000206  00000-0  00000-0 0  9992
2 23613  14.2383   7.2303 0028686  26.8008 250.4635  1.00275814 88130
USA 113                 
1 23628U 95038A   19230.90104483 -.00000342  00000-0  00000-0 0  9990
2 23628  11.1526  32.2962 0001128 121.4494 241.4403  1.00270065  7961
USA 115 (MILSTAR-1 2)   
1 23712U 95060A   19230.93797578 -.00000203  00000-0  00000-0 0  9991
2 23712  13.0469  22.4807 0002229 126.9205  65.2614  1.00271121  7908
INMARSAT 3-F1           
1 23839U 96020A   19230.91308942 -.00000002  00000-0  00000-0 0  9996
2 23839   5.4823  63.8204 0005339  83.6692 212.6808  1.00273198 85300
ASTRA 1F                
1 23842U 96021A   19231.16063854  .00000132  00000-0  00000+0 0  9991
2 23842   0.0850 295.5932 0004926 214.8207 278.9341  1.00273308 85320
MSAT M1                 
1 23846U 96022A   19230.63828578 -.00000092  00000-0  00000-0 0  9996
2 23846   8.8706  43.4088 0005028  84.8728 320.7055  1.00272353 85405
INMARSAT 3-F2           
1 24307U 96053A   19230.83293840 -.00000260  00000-0  00000-0 0  9990
2 24307   4.2551  73.6527 0005314  52.3900 290.6202  1.00006049 83975
AMC-1 (GE-1)            
1 24315U 96054A   19230.55894588  .00000058  00000-0  00000-0 0  9999
2 24315   3.2553  80.7513 0003277  51.1836 265.0204  1.00274234 84006
INMARSAT 3-F3           
1 24674U 96070A   19230.79690115  .00000027  00000-0  00000-0 0  9997
2 24674   4.9883  67.8722 0004891  78.7449 285.2214  1.00273554 82966
AMC-2 (GE-2)            
1 24713U 97002A   19230.52910385 -.00000220  00000-0  00000-0 0  9998
2 24713   5.7943  61.9431 0005395  87.0253 283.2599  1.00272630 82579
INTELSAT 26 (IS-26)     
1 24732U 97007A   19230.55847316  .00000011  00000-0  00000-0 0  9997
2 24732   8.6113  44.7954 0002532  82.8290 102.2307  1.00272457 82264
USA 130 (DSP 18)        
1 24737U 97008A   19230.61953831  .00000026  00000-0  00000-0 0  9996
2 24737  13.4058  22.3998 0000643 331.7725 203.8695  1.00262874  6593
GALAXY 25 (G-25)        
1 24812U 97026A   19230.90629498  .00000085  00000-0  00000-0 0  9996
2 24812   1.2149  92.9368 0004874  60.6632 145.9162  1.00618093 81363
INTELSAT 5 (IS-5)       
1 24916U 97046A   19230.66212164  .00000083  00000-0  00000-0 0  9992
2 24916   5.0954  67.1894 0003100  62.0989 298.8022  1.00273054 80618
AMC-3 (GE-3)            
1 24936U 97050A   19230.89067976 -.00000268  00000-0  00000-0 0  9999
2 24936   2.1021  87.9925 0002937  63.9805  63.6178  1.00272016 27429
NSS-5                   
1 24957U 97053A   19230.91615140  .00000099  00000-0  00000-0 0  9991
2 24957   5.3643  65.3760 0003911  79.3472 202.5631  1.00271641 80169
USA 134                 
1 25019U 97065A   19230.54858816 -.00000064  00000-0  00000-0 0  9995
2 25019   9.8635  38.0934 0002943 269.7803 103.9930  1.00270982  6594
ASTRA 1G                
1 25071U 97076A   19230.91308942  .00000000  00000-0  00000+0 0  9994
2 25071   3.9613  74.9104 0006470  91.6719 192.3511  1.00328768 79524
INMARSAT 3-F5           
1 25153U 98006B   19230.89425642 -.00000296  00000-0  00000-0 0  9992
2 25153   4.1728  71.6706 0005051  74.9153  88.3137  1.00274921 78884
UFO 8 (USA 138)         
1 25258U 98016A   19230.72379744 -.00000029  00000-0  00000-0 0  9996
2 25258   8.3556  34.0218 0002265 105.5557 259.3522  1.00276063 78842
INTELSAT 805 (IS-805)   
1 25371U 98037A   19231.44122177 -.00000037  00000-0  00000+0 0  9999
2 25371   1.7482  90.1679 0003370  59.8477 145.4039  1.00272747 77557
ASTRA 2A                
1 25462U 98050A   19230.85316831 -.00000313  00000-0  00000-0 0  9999
2 25462   0.9126  96.7319 0002910  44.2642 233.0712  1.00274339 21356
JCSAT-4A                
1 25630U 99006A   19230.83293840 -.00000211  00000-0  00000-0 0  9997
2 25630   3.9426  75.8575 0003702  55.0432 285.8541  1.00271101 25597
SKYNET 4E               
1 25639U 99009B   19230.68933925 -.00000037  00000-0  00000-0 0  9993
2 25639  10.7021  22.9504 0002801 127.5748  63.1697  1.00272860 75005
ASIASAT 3S              
1 25657U 99013A   19230.93438495 -.00000233  00000-0  00000-0 0  9996
2 25657   4.1405  74.2554 0002702  55.3152 321.2943  1.00270766 74813
NIMIQ 1                 
1 25740U 99027A   19230.88771375 -.00000206  00000-0  00000-0 0  9995
2 25740   0.3829  96.7373 0005406  56.5293  46.7300  1.00271444 74040
ASTRA 1H                
1 25785U 99033A   19231.43908448 -.00000283  00000-0  00000+0 0  9990
2 25785   5.3478  65.5038 0003266  78.0336 274.9642  1.00273348 73773
ABS-7                   
1 25894U 99046A   19230.92810396 -.00000370  00000-0  00000-0 0  9990
2 25894   0.2602  98.0260 0002086  59.5811 259.6088  1.00274746 72110
ABS-6                   
1 25924U 99053A   19231.43921535 -.00000127  00000-0  00000+0 0  9996
2 25924   0.0607 291.3237 0002550 208.9684 144.3209  1.00270875 72869
TELSTAR 12 (ORION 2)    
1 25949U 99059A   19230.88317747 -.00000071  00000-0  00000-0 0  9990
2 25949   2.6156  86.2667 0003246  69.5660  19.8517  1.00272293 72526
AMC-4 (GE-4)            
1 25954U 99060A   19230.89286395  .00000080  00000-0  00000-0 0  9992
2 25954   0.1068 280.6720 0002731 234.6478 358.1536  1.00272903 18648
UFO 10 (USA 146)        
1 25967U 99063A   19231.33095939 -.00000185  00000-0  00000+0 0  9997
2 25967   7.5272  36.5184 0004216  64.6577 323.2622  1.00271549 72333
GALAXY 11 (G-11)        
1 26038U 99071A   19231.46076262 -.00000169  00000-0  00000+0 0  9990
2 26038   0.5155 101.0607 0000766  26.4577 272.7658  1.00272973 72076
USA 148                 
1 26052U 00001A   19230.86340101  .00000035  00000-0  00000-0 0  9992
2 26052   7.9485  48.3694 0001953  45.1555   4.3471  1.00272974  7959
ASIASTAR                
1 26107U 00016A   19230.88182973 -.00000341  00000-0  00000-0 0  9993
2 26107   3.3423  78.8871 0004077  69.8231 240.6883  1.00269869 70918
USA 149 (DSP 20)        
1 26356U 00024A   19230.63130015  .00000094  00000-0  00000-0 0  9995
2 26356  11.2960  28.6439 0001258  53.9129 305.8051  1.00280931  7890
EUTELSAT 80A            
1 26369U 00028A   19230.94708142  .00000114  00000-0  00000-0 0  9992
2 26369   2.7060  82.9449 0003931  60.4983 212.6130  1.00270596 70423
TDRS 8                  
1 26388U 00034A   19230.88373943 -.00000239  00000-0  00000-0 0  9999
2 26388   8.7577  49.6720 0010171 312.2694  12.4103  1.00276348 70164
INTELSAT 9 (IS-9)       
1 26451U 00043A   19230.79528138 -.00000016  00000-0  00000-0 0  9991
2 26451   5.0828  67.3889 0003034  92.9587 158.9572  1.00273438 19133
BRASILSAT B4            
1 26469U 00046A   19230.88666691 -.00000178  00000-0  00000-0 0  9999
2 26469   3.3145  80.5021 0003323  55.1877  58.4471  1.00273408 69958
ASTRA 2B                
1 26494U 00054A   19231.33950851  .00000111  00000-0  00000+0 0  9996
2 26494   3.8583  75.5498 0004927  69.8538 323.5949  1.00273937 69230
AMC-7 (GE-7)            
1 26495U 00054B   19230.90115444  .00000080  00000-0  00000-0 0  9996
2 26495   0.6105  95.3123 0002947  54.4472   6.6109  1.00271220 69227
NSS-11 (AAP-1)          
1 26554U 00059A   19230.79655220  .00000017  00000-0  00000-0 0  9995
2 26554   0.0527 291.2776 0002173 196.0588 302.2923  1.00272642 16284
USA 153                 
1 26575U 00065A   19230.93176788 -.00000330  00000-0  00000-0 0  9997
2 26575   7.4024  51.5621 0001070  90.3922 294.8814  1.00268901  7928
AMC-6 (GE-6)            
1 26580U 00067A   19230.88841162 -.00000223  00000-0  00000-0 0  9995
2 26580   0.0096 278.1378 0002805 249.5564  36.0938  1.00270678 68963
INTELSAT 12 (IS-12)     
1 26590U 00068A   19230.85967448  .00000004  00000-0  00000-0 0  9996
2 26590   2.2145  87.6880 0004326  34.4427 218.5037  1.00272632 26708
INTELSAT 1R (IS-1R)     
1 26608U 00072A   19231.15168959 -.00000145  00000-0  00000+0 0  9991
2 26608   2.0149  88.8155 0000554  81.9239   8.1748  1.00271776 68644
ANIK F1                 
1 26624U 00076A   19230.88361365 -.00000082  00000-0  00000-0 0  9999
2 26624   0.0169 152.0413 0003217 355.8151  29.8822  1.00272401 18147
ASTRA 2D                
1 26638U 00081A   19231.33662972  .00000023  00000-0  00000+0 0  9992
2 26638   5.1860  66.2816 0001607  74.7437 312.7204  1.00270048 68388
